[{"OBJECT_NAME":"STARLINK-5973","OBJECT_ID":"2023-083AS","EPOCH":"2026-03-09T22:00:01.999584","MEAN_MOTION":15.06658129,"ECCENTRICITY":0.00010999,"INCLINATION":43.0007,"RA_OF_ASC_NODE":67.3137,"ARG_OF_PERICENTER":323.5297,"MEAN_ANOMALY":164.4858,"EPHEMERIS_TYPE":0,"CLASSIFICATION_TYPE":"U","NORAD_CAT_ID":56916,"ELEMENT_SET_NO":999,"REV_AT_EPOCH":557,"BSTAR":0.0043231422,"MEAN_MOTION_DOT":0.00065619,"MEAN_MOTION_DDOT":0},{"OBJECT_NAME":"LEMUR-2-SQUIRRELCOMM","OBJECT_ID":"2024-149DQ","EPOCH":"2026-03-09T21:26:31.466400","MEAN_MOTION":15.05887962,"ECCENTRICITY":0.00061012,"INCLINATION":97.6754,"RA_OF_ASC_NODE":150.1976,"ARG_OF_PERICENTER":42.3481,"MEAN_ANOMALY":317.8216,"EPHEMERIS_TYPE":0,"CLASSIFICATION_TYPE":"U","NORAD_CAT_ID":60578,"ELEMENT_SET_NO":999,"REV_AT_EPOCH":8545,"BSTAR":0.00060830109,"MEAN_MOTION_DOT":8.786e-5,"MEAN_MOTION_DDOT":0}]
